QZS-1R                  
1 49336U 21096A   24256.57522997 -.00000223  00000+0  00000+0 0  9994
2 49336  36.1216  89.2042 0743325 269.6288 334.4635  1.00292454 10563
